{"type": "FeatureCollection", "features": [ {"type": "Feature", "properties": {"norad_id": 31552, "name": "FENGYUN 1C DEB", "group": "fengyun-1c-debris", "lat": -66.23948749131544, "lon": -88.08388438309609, "alt_km": 779.1893074658401, "timestamp": "2025-12-16T03:53:27.339367+00:00", "meta": {"OBJECT_NAME": "FENGYUN 1C DEB", "OBJECT_ID": "1999-025BYT", "EPOCH": "2025-12-15T06:48:49.178592", "MEAN_MOTION": 14.45742454, "ECCENTRICITY": 0.00854918, "INCLINATION": 98.6207, "RA_OF_ASC_NODE": 111.1815, "ARG_OF_PERICENTER": 12.9792, "MEAN_ANOMALY": 347.3571, "EPHEMERIS_TYPE": 0, "CLASSIFICATION_TYPE": "U", "NORAD_CAT_ID": 31552, "ELEMENT_SET_NO": 999, "REV_AT_EPOCH": 95913, "BSTAR": 0.0017879953, "MEAN_MOTION_DOT": 6.584e-05, "MEAN_MOTION_DDOT": 0}, "tle": {"line1": "1 31552U 99025BYT 25349.28390253  .00006584  00000+0  17880-2 0  9994", "line2": "2 31552  98.6207 111.1815 0085491  12.9792 347.3571 14.45742454959132"}}, "geometry": {"type": "Point", "coordinates": [-88.08388438309609, -66.23948749131544]}}, {"type": "Feature", "properties": {"norad_id": 31553, "name": "FENGYUN 1C DEB", "group": "fengyun-1c-debris", "lat": -33.82143261965532, "lon": 51.12854251673132, "alt_km": 809.9844680178376, "timestamp": "2025-12-16T03:53:27.339377+00:00", "meta": {"OBJECT_NAME": "FENGYUN 1C DEB", "OBJECT_ID": "1999-025BYU", "EPOCH": "2025-12-14T10:08:23.584416", "MEAN_MOTION": 14.30176489, "ECCENTRICITY": 0.00299269, "INCLINATION": 99.0036, "RA_OF_ASC_NODE": 43.2318, "ARG_OF_PERICENTER": 97.4856, "MEAN_ANOMALY": 276.887, "EPHEMERIS_TYPE": 0, "CLASSIFICATION_TYPE": "U", "NORAD_CAT_ID": 31553, "ELEMENT_SET_NO": 999, "REV_AT_EPOCH": 95934, "BSTAR": 0.0017691069, "MEAN_MOTION_DOT": 4.558e-05, "MEAN_MOTION_DDOT": 0}, "tle": {"line1": "1 31553U 99025BYU 25348.42249519  .00004558  00000+0  17691-2 0  9997", "line2": "2 31553  99.0036  43.2318 0029926  97.4856 276.8870 14.30176489959345"}}, "geometry": {"type": "Point", "coordinates": [51.12854251673132, -33.82143261965532]}}, {"type": "Feature", "properties": {"norad_id": 31555, "name": "FENGYUN 1C DEB", "group": "fengyun-1c-debris", "lat": -78.09375853043467, "lon": 75.04360289183845, "alt_km": 723.6634833359813, "timestamp": "2025-12-16T03:53:27.339387+00:00", "meta": {"OBJECT_NAME": "FENGYUN 1C DEB", "OBJECT_ID": "1999-025BYW", "EPOCH": "2025-12-15T03:24:33.183936", "MEAN_MOTION": 14.44273721, "ECCENTRICITY": 0.0154509, "INCLINATION": 99.1032, "RA_OF_ASC_NODE": 303.4548, "ARG_OF_PERICENTER": 189.1993, "MEAN_ANOMALY": 170.6358, "EPHEMERIS_TYPE": 0, "CLASSIFICATION_TYPE": "U", "NORAD_CAT_ID": 31555, "ELEMENT_SET_NO": 999, "REV_AT_EPOCH": 96598, "BSTAR": 0.00082122942, "MEAN_MOTION_DOT": 3.21e-05, "MEAN_MOTION_DDOT": 0}, "tle": {"line1": "1 31555U 99025BYW 25349.14205074  .00003210  00000+0  82123-3 0  9994", "line2": "2 31555  99.1032 303.4548 0154509 189.1993 170.6358 14.44273721965988"}}, "geometry": {"type": "Point", "coordinates": [75.04360289183845, -78.09375853043467]}}, {"type": "Feature", "properties": {"norad_id": 31558, "name": "FENGYUN 1C DEB", "group": "fengyun-1c-debris", "lat": 65.3801485322465, "lon": 85.37001989992902, "alt_km": 868.6127458793726, "timestamp": "2025-12-16T03:53:27.339398+00:00", "meta": {"OBJECT_NAME": "FENGYUN 1C DEB", "OBJECT_ID": "1999-025BYZ", "EPOCH": "2025-12-15T04:42:59.308992", "MEAN_MOTION": 14.38706967, "ECCENTRICITY": 0.02106913, "INCLINATION": 98.7908, "RA_OF_ASC_NODE": 244.6448, "ARG_OF_PERICENTER": 254.9475, "MEAN_ANOMALY": 261.3723, "EPHEMERIS_TYPE": 0, "CLASSIFICATION_TYPE": "U", "NORAD_CAT_ID": 31558, "ELEMENT_SET_NO": 999, "REV_AT_EPOCH": 97470, "BSTAR": 0.00022632306, "MEAN_MOTION_DOT": 8.41e-06, "MEAN_MOTION_DDOT": 0}, "tle": {"line1": "1 31558U 99025BYZ 25349.19651978  .00000841  00000+0  22632-3 0  9996", "line2": "2 31558  98.7908 244.6448 0210691 254.9475 261.3723 14.38706967974704"}}, "geometry": {"type": "Point", "coordinates": [85.37001989992902, 65.3801485322465]}}, {"type": "Feature", "properties": {"norad_id": 31559, "name": "FENGYUN 1C DEB", "group": "fengyun-1c-debris", "lat": -71.57063600752994, "lon": -27.535856938933854, "alt_km": 697.1895544852068, "timestamp": "2025-12-16T03:53:27.339408+00:00", "meta": {"OBJECT_NAME": "FENGYUN 1C DEB", "OBJECT_ID": "1999-025BZA", "EPOCH": "2025-12-12T09:02:40.847424", "MEAN_MOTION": 14.63565314, "ECCENTRICITY": 0.00541912, "INCLINATION": 98.8668, "RA_OF_ASC_NODE": 300.4604, "ARG_OF_PERICENTER": 194.689, "MEAN_ANOMALY": 318.0708, "EPHEMERIS_TYPE": 0, "CLASSIFICATION_TYPE": "U", "NORAD_CAT_ID": 31559, "ELEMENT_SET_NO": 999, "REV_AT_EPOCH": 97551, "BSTAR": 0.002281435, "MEAN_MOTION_DOT": 0.00012057, "MEAN_MOTION_DDOT": 0}, "tle": {"line1": "1 31559U 99025BZA 25346.37686166  .00012057  00000+0  22814-2 0  9994", "line2": "2 31559  98.8668 300.4604 0054191 194.6890 318.0708 14.63565314975516"}}, "geometry": {"type": "Point", "coordinates": [-27.535856938933854, -71.57063600752994]}}, {"type": "Feature", "properties": {"norad_id": 31560, "name": "FENGYUN 1C DEB", "group": "fengyun-1c-debris", "lat": 72.36876408304933, "lon": -2.2125370705002965, "alt_km": 875.8854909870843, "timestamp": "2025-12-16T03:53:27.339418+00:00", "meta": {"OBJECT_NAME": "FENGYUN 1C DEB", "OBJECT_ID": "1999-025BZB", "EPOCH": "2025-12-13T07:57:18.362592", "MEAN_MOTION": 14.21222514, "ECCENTRICITY": 0.01199153, "INCLINATION": 98.5891, "RA_OF_ASC_NODE": 23.4289, "ARG_OF_PERICENTER": 306.7307, "MEAN_ANOMALY": 52.2904, "EPHEMERIS_TYPE": 0, "CLASSIFICATION_TYPE": "U", "NORAD_CAT_ID": 31560, "ELEMENT_SET_NO": 999, "REV_AT_EPOCH": 96627, "BSTAR": 9.057041e-05, "MEAN_MOTION_DOT": 1.68e-06, "MEAN_MOTION_DDOT": 0}, "tle": {"line1": "1 31560U 99025BZB 25347.33146253  .00000168  00000+0  90570-4 0  9997", "line2": "2 31560  98.5891  23.4289 0119915 306.7307  52.2904 14.21222514966273"}}, "geometry": {"type": "Point", "coordinates": [-2.2125370705002965, 72.36876408304933]}}, {"type": "Feature", "properties": {"norad_id": 31561, "name": "FENGYUN 1C DEB", "group": "fengyun-1c-debris", "lat": -33.80855304912739, "lon": 160.1617417196624, "alt_km": 859.2547878058158, "timestamp": "2025-12-16T03:53:27.339429+00:00", "meta": {"OBJECT_NAME": "FENGYUN 1C DEB", "OBJECT_ID": "1999-025BZC", "EPOCH": "2025-12-15T06:24:44.167104", "MEAN_MOTION": 14.02773065, "ECCENTRICITY": 0.00564786, "INCLINATION": 98.7177, "RA_OF_ASC_NODE": 345.2024, "ARG_OF_PERICENTER": 175.6735, "MEAN_ANOMALY": 201.1104, "EPHEMERIS_TYPE": 0, "CLASSIFICATION_TYPE": "U", "NORAD_CAT_ID": 31561, "ELEMENT_SET_NO": 999, "REV_AT_EPOCH": 95214, "BSTAR": 0.00042474417, "MEAN_MOTION_DOT": 6.24e-06, "MEAN_MOTION_DDOT": 0}, "tle": {"line1": "1 31561U 99025BZC 25349.26717786  .00000624  00000+0  42474-3 0  9993", "line2": "2 31561  98.7177 345.2024 0056478 175.6735 201.1104 14.02773065952146"}}, "geometry": {"type": "Point", "coordinates": [160.1617417196624, -33.80855304912739]}}, {"type": "Feature", "properties": {"norad_id": 31562, "name": "FENGYUN 1C DEB", "group": "fengyun-1c-debris", "lat": 0.6992678829354073, "lon": -37.89164372557806, "alt_km": 757.0260663779454, "timestamp": "2025-12-16T03:53:27.339439+00:00", "meta": {"OBJECT_NAME": "FENGYUN 1C DEB", "OBJECT_ID": "1999-025BZD", "EPOCH": "2025-12-13T05:07:06.349152", "MEAN_MOTION": 14.42070713, "ECCENTRICITY": 0.00570889, "INCLINATION": 99.2577, "RA_OF_ASC_NODE": 138.7983, "ARG_OF_PERICENTER": 281.8572, "MEAN_ANOMALY": 77.6216, "EPHEMERIS_TYPE": 0, "CLASSIFICATION_TYPE": "U", "NORAD_CAT_ID": 31562, "ELEMENT_SET_NO": 999, "REV_AT_EPOCH": 96997, "BSTAR": 0.0015688038, "MEAN_MOTION_DOT": 5.207e-05, "MEAN_MOTION_DDOT": 0}, "tle": {"line1": "1 31562U 99025BZD 25347.21326793  .00005207  00000+0  15688-2 0  9999", "line2": "2 31562  99.2577 138.7983 0057088 281.8572  77.6216 14.42070713969976"}}, "geometry": {"type": "Point", "coordinates": [-37.89164372557806, 0.6992678829354073]}}, {"type": "Feature", "properties": {"norad_id": 31563, "name": "FENGYUN 1C DEB", "group": "fengyun-1c-debris", "lat": 39.596280646531916, "lon": -28.554188568066998, "alt_km": 646.3766046487171, "timestamp": "2025-12-16T03:53:27.339450+00:00", "meta": {"OBJECT_NAME": "FENGYUN 1C DEB", "OBJECT_ID": "1999-025BZE", "EPOCH": "2025-12-15T09:14:22.343712", "MEAN_MOTION": 14.65319058, "ECCENTRICITY": 0.01139322, "INCLINATION": 98.9513, "RA_OF_ASC_NODE": 143.1088, "ARG_OF_PERICENTER": 70.826, "MEAN_ANOMALY": 290.5231, "EPHEMERIS_TYPE": 0, "CLASSIFICATION_TYPE": "U", "NORAD_CAT_ID": 31563, "ELEMENT_SET_NO": 999, "REV_AT_EPOCH": 98583, "BSTAR": 0.00039441676, "MEAN_MOTION_DOT": 2.28e-05, "MEAN_MOTION_DDOT": 0}, "tle": {"line1": "1 31563U 99025BZE 25349.38498083  .00002280  00000+0  39442-3 0  9995", "line2": "2 31563  98.9513 143.1088 0113932  70.8260 290.5231 14.65319058985839"}}, "geometry": {"type": "Point", "coordinates": [-28.554188568066998, 39.596280646531916]}}, {"type": "Feature", "properties": {"norad_id": 31565, "name": "FENGYUN 1C DEB", "group": "fengyun-1c-debris", "lat": 59.59318160037032, "lon": 61.955553226422914, "alt_km": 766.5225673593459, "timestamp": "2025-12-16T03:53:27.339460+00:00", "meta": {"OBJECT_NAME": "FENGYUN 1C DEB", "OBJECT_ID": "1999-025BZG", "EPOCH": "2025-12-14T09:37:38.851104", "MEAN_MOTION": 14.38973475, "ECCENTRICITY": 0.00566914, "INCLINATION": 100.717, "RA_OF_ASC_NODE": 220.9337, "ARG_OF_PERICENTER": 17.9273, "MEAN_ANOMALY": 342.389, "EPHEMERIS_TYPE": 0, "CLASSIFICATION_TYPE": "U", "NORAD_CAT_ID": 31565, "ELEMENT_SET_NO": 999, "REV_AT_EPOCH": 64377, "BSTAR": 0.003342436, "MEAN_MOTION_DOT": 0.00010461, "MEAN_MOTION_DDOT": 0}, "tle": {"line1": "1 31565U 99025BZG 25348.40114411  .00010461  00000+0  33424-2 0  9992", "line2": "2 31565 100.7170 220.9337 0056691  17.9273 342.3890 14.38973475643777"}}, "geometry": {"type": "Point", "coordinates": [61.955553226422914, 59.59318160037032]}}]}